Satellite: CAPE1
Catalog number: 31130
Epoch time:      12236.53898561
Element set:     549
Inclination:      097.8837 deg
RA of node:       240.0525 deg
Eccentricity:    0.0100181
Arg of perigee:   274.4988 deg
Mean anomaly:     084.4767 deg
Mean motion:   14.53034513 rev/day
Decay rate:       4.34e-06 rev/day^2
Epoch rev:           28355
Checksum:              307

Satellite: COMPASS
Catalog number: 32787
Epoch time:      12236.82730754
Element set:     389
Inclination:      097.7943 deg
RA of node:       296.6546 deg
Eccentricity:    0.0014991
Arg of perigee:   194.6164 deg
Mean anomaly:     165.4563 deg
Mean motion:   14.84225989 rev/day
Decay rate:       9.53e-06 rev/day^2
Epoch rev:           23384
Checksum:              357

Satellite: AAUSAT2
Catalog number: 32788
Epoch time:      12236.84924244
Element set:     382
Inclination:      097.7955 deg
RA of node:       297.0956 deg
Eccentricity:    0.0014394
Arg of perigee:   194.0356 deg
Mean anomaly:     166.0449 deg
Mean motion:   14.84563105 rev/day
Decay rate:       6.39e-06 rev/day^2
Epoch rev:           23387
Checksum:              340

Satellite: DO-64
Catalog number: 32789
Epoch time:      12235.74796000
Element set:    0399
Inclination:      097.8061 deg
RA of node:       298.3027 deg
Eccentricity:    0.0014420
Arg of perigee:   194.5780 deg
Mean anomaly:     165.5014 deg
Mean motion:   14.86208810 rev/day
Decay rate:      2.419e-05 rev/day^2
Epoch rev:           23376
Checksum:              319

Satellite: CO-66
Catalog number: 32791
Epoch time:      12236.70957796
Element set:     380
Inclination:      097.7941 deg
RA of node:       296.2253 deg
Eccentricity:    0.0015259
Arg of perigee:   195.4389 deg
Mean anomaly:     164.6356 deg
Mean motion:   14.83600322 rev/day
Decay rate:       3.87e-06 rev/day^2
Epoch rev:           23375
Checksum:              344

Satellite: RS-30
Catalog number: 32953
Epoch time:      12236.57793380
Element set:      79
Inclination:      082.4973 deg
RA of node:       253.2301 deg
Eccentricity:    0.0019158
Arg of perigee:   156.7697 deg
Mean anomaly:     203.4255 deg
Mean motion:   12.43027021 rev/day
Decay rate:        1.0e-07 rev/day^2
Epoch rev:           19293
Checksum:              290

Satellite: PHARMSAT
Catalog number: 35002
Epoch time:      12226.86484473
Element set:      78
Inclination:      040.4341 deg
RA of node:       050.6671 deg
Eccentricity:    0.0012079
Arg of perigee:   300.9773 deg
Mean anomaly:     059.0492 deg
Mean motion:   16.39309245 rev/day
Decay rate:   7.728342e-02 rev/day^2
Epoch rev:           18355
Checksum:              302

Satellite: METEOR-M
Catalog number: 35865
Epoch time:      12236.70431918
Element set:     710
Inclination:      098.6486 deg
RA of node:       289.7427 deg
Eccentricity:    0.0001878
Arg of perigee:   201.7410 deg
Mean anomaly:     158.3685 deg
Mean motion:   14.21867469 rev/day
Decay rate:       -3.0e-07 rev/day^2
Epoch rev:           15219
Checksum:              318

Satellite: RS-38
Catalog number: 35869
Epoch time:      12236.78572638
Element set:     712
Inclination:      098.6436 deg
RA of node:       289.8069 deg
Eccentricity:    0.0004006
Arg of perigee:   208.8547 deg
Mean anomaly:     151.2408 deg
Mean motion:   14.22083210 rev/day
Decay rate:        2.4e-07 rev/day^2
Epoch rev:           15222
Checksum:              307

Satellite: JUGNU
Catalog number: 37839
Epoch time:      12235.52537067
Element set:     211
Inclination:      019.9645 deg
RA of node:       316.3534 deg
Eccentricity:    0.0018474
Arg of perigee:   234.0310 deg
Mean anomaly:     125.8295 deg
Mean motion:   14.12074641 rev/day
Decay rate:       6.20e-06 rev/day^2
Epoch rev:            4463
Checksum:              274

Satellite: SRMSAT
Catalog number: 37841
Epoch time:      12235.52871304
Element set:     212
Inclination:      019.9758 deg
RA of node:       322.5024 deg
Eccentricity:    0.0012181
Arg of perigee:   199.4425 deg
Mean anomaly:     160.5515 deg
Mean motion:   14.10155568 rev/day
Decay rate:       2.64e-06 rev/day^2
Epoch rev:            4456
Checksum:              274

Satellite: RAX-2
Catalog number: 37853
Epoch time:      12235.90162591
Element set:    0265
Inclination:      101.7092 deg
RA of node:       306.4737 deg
Eccentricity:    0.0246008
Arg of perigee:   160.6939 deg
Mean anomaly:     200.3791 deg
Mean motion:   14.80427444 rev/day
Decay rate:      3.179e-05 rev/day^2
Epoch rev:           04427
Checksum:              297

Satellite: AUBIESAT
Catalog number: 37854
Epoch time:      12235.90593738
Element set:    0265
Inclination:      101.7103 deg
RA of node:       306.8214 deg
Eccentricity:    0.0247095
Arg of perigee:   159.9049 deg
Mean anomaly:     201.2096 deg
Mean motion:   14.80857057 rev/day
Decay rate:      3.818e-05 rev/day^2
Epoch rev:           04426
Checksum:              307

Satellite: HRBE
Catalog number: 37855
Epoch time:      12236.87258340
Element set:     262
Inclination:      101.7121 deg
RA of node:       308.1609 deg
Eccentricity:    0.0247515
Arg of perigee:   157.3294 deg
Mean anomaly:     203.9055 deg
Mean motion:   14.80693995 rev/day
Decay rate:      3.458e-05 rev/day^2
Epoch rev:            4440
Checksum:              302

Satellite: RS-39
Catalog number: 38051
Epoch time:      12236.75833906
Element set:     635
Inclination:      051.6400 deg
RA of node:       197.6055 deg
Eccentricity:    0.0012444
Arg of perigee:   282.5553 deg
Mean anomaly:     150.3155 deg
Mean motion:   15.25303814 rev/day
Decay rate:      5.254e-05 rev/day^2
Epoch rev:            3228
Checksum:              284

Satellite: E-STAR
Catalog number: 38079
Epoch time:      12236.87083318
Element set:     447
Inclination:      069.4842 deg
RA of node:       160.5306 deg
Eccentricity:    0.0726057
Arg of perigee:   162.4489 deg
Mean anomaly:     200.3350 deg
Mean motion:   14.18748955 rev/day
Decay rate:     2.4307e-04 rev/day^2
Epoch rev:            2717
Checksum:              315

Satellite: GOLIAT
Catalog number: 38085
Epoch time:      12236.76963504
Element set:     417
Inclination:      069.4860 deg
RA of node:       161.2695 deg
Eccentricity:    0.0732153
Arg of perigee:   162.9033 deg
Mean anomaly:     199.8216 deg
Mean motion:   14.17679282 rev/day
Decay rate:     2.2622e-04 rev/day^2
Epoch rev:            2714
Checksum:              316

Satellite: HORYU-2
Catalog number: 38340
Epoch time:      12236.34806745
Element set:     105
Inclination:      098.1782 deg
RA of node:       176.2431 deg
Eccentricity:    0.0013891
Arg of perigee:   115.8245 deg
Mean anomaly:     244.4474 deg
Mean motion:   14.70104122 rev/day
Decay rate:       9.33e-06 rev/day^2
Epoch rev:            1434
Checksum:              272

